KUIPER-00254            
1 68585U 26072N   26099.50487879  .00015690  00000+0  43827-3 0  9990
2 68585  51.8713 149.1007 0007632 125.1432 235.0271 15.36854703   818
